{"type": "FeatureCollection", "features": [ {"type": "Feature", "properties": {"norad_id": 35445, "name": "COSMOS 2251 DEB", "group": "cosmos-2251-debris", "lat": -45.94018951453925, "lon": 123.76793107458192, "alt_km": 783.1513618986683, "timestamp": "2025-12-19T18:58:41.982112+00:00", "meta": {"OBJECT_NAME": "COSMOS 2251 DEB", "OBJECT_ID": "1993-036AKP", "EPOCH": "2025-12-18T05:44:09.269952", "MEAN_MOTION": 14.59267708, "ECCENTRICITY": 0.0143868, "INCLINATION": 74.0369, "RA_OF_ASC_NODE": 289.5205, "ARG_OF_PERICENTER": 15.1683, "MEAN_ANOMALY": 345.3726, "EPHEMERIS_TYPE": 0, "CLASSIFICATION_TYPE": "U", "NORAD_CAT_ID": 35445, "ELEMENT_SET_NO": 999, "REV_AT_EPOCH": 87409, "BSTAR": 0.0018624247, "MEAN_MOTION_DOT": 0.00010147, "MEAN_MOTION_DDOT": 0}, "tle": {"line1": "1 35445U 93036AKP 25352.23899618  .00010147  00000+0  18624-2 0  9990", "line2": "2 35445  74.0369 289.5205 0143868  15.1683 345.3726 14.59267708874094"}}, "geometry": {"type": "Point", "coordinates": [123.76793107458192, -45.94018951453925]}}, {"type": "Feature", "properties": {"norad_id": 35446, "name": "COSMOS 2251 DEB", "group": "cosmos-2251-debris", "lat": 28.836695142886303, "lon": 115.7881604631783, "alt_km": 707.2677674208117, "timestamp": "2025-12-19T18:58:41.982122+00:00", "meta": {"OBJECT_NAME": "COSMOS 2251 DEB", "OBJECT_ID": "1993-036AKQ", "EPOCH": "2025-12-18T05:59:12.750432", "MEAN_MOTION": 14.54634793, "ECCENTRICITY": 0.00745391, "INCLINATION": 74.0467, "RA_OF_ASC_NODE": 307.7629, "ARG_OF_PERICENTER": 64.3886, "MEAN_ANOMALY": 296.4954, "EPHEMERIS_TYPE": 0, "CLASSIFICATION_TYPE": "U", "NORAD_CAT_ID": 35446, "ELEMENT_SET_NO": 999, "REV_AT_EPOCH": 88088, "BSTAR": 9.8850262e-05, "MEAN_MOTION_DOT": 4.08e-06, "MEAN_MOTION_DDOT": 0}, "tle": {"line1": "1 35446U 93036AKQ 25352.24945313  .00000408  00000+0  98850-4 0  9996", "line2": "2 35446  74.0467 307.7629 0074539  64.3886 296.4954 14.54634793880886"}}, "geometry": {"type": "Point", "coordinates": [115.7881604631783, 28.836695142886303]}}, {"type": "Feature", "properties": {"norad_id": 35448, "name": "COSMOS 2251 DEB", "group": "cosmos-2251-debris", "lat": -0.5862996246151517, "lon": 75.90087257875308, "alt_km": 715.8846099630209, "timestamp": "2025-12-19T18:58:41.982133+00:00", "meta": {"OBJECT_NAME": "COSMOS 2251 DEB", "OBJECT_ID": "1993-036AKS", "EPOCH": "2025-12-17T15:48:08.057376", "MEAN_MOTION": 14.54306329, "ECCENTRICITY": 0.00121573, "INCLINATION": 73.9037, "RA_OF_ASC_NODE": 80.133, "ARG_OF_PERICENTER": 263.1799, "MEAN_ANOMALY": 96.798, "EPHEMERIS_TYPE": 0, "CLASSIFICATION_TYPE": "U", "NORAD_CAT_ID": 35448, "ELEMENT_SET_NO": 999, "REV_AT_EPOCH": 87406, "BSTAR": 0.00080210225, "MEAN_MOTION_DOT": 3.379e-05, "MEAN_MOTION_DDOT": 0}, "tle": {"line1": "1 35448U 93036AKS 25351.65842659  .00003379  00000+0  80210-3 0  9991", "line2": "2 35448  73.9037  80.1330 0012157 263.1799  96.7980 14.54306329874064"}}, "geometry": {"type": "Point", "coordinates": [75.90087257875308, -0.5862996246151517]}}, {"type": "Feature", "properties": {"norad_id": 35451, "name": "COSMOS 2251 DEB", "group": "cosmos-2251-debris", "lat": -63.364868622861984, "lon": 52.350606018475126, "alt_km": 442.51280206071806, "timestamp": "2025-12-19T18:58:41.982143+00:00", "meta": {"OBJECT_NAME": "COSMOS 2251 DEB", "OBJECT_ID": "1993-036AKV", "EPOCH": "2025-12-18T16:42:12.696192", "MEAN_MOTION": 15.36180792, "ECCENTRICITY": 0.00414288, "INCLINATION": 73.9324, "RA_OF_ASC_NODE": 89.795, "ARG_OF_PERICENTER": 334.996, "MEAN_ANOMALY": 24.9237, "EPHEMERIS_TYPE": 0, "CLASSIFICATION_TYPE": "U", "NORAD_CAT_ID": 35451, "ELEMENT_SET_NO": 999, "REV_AT_EPOCH": 67497, "BSTAR": 0.0011339762, "MEAN_MOTION_DOT": 0.00041322, "MEAN_MOTION_DDOT": 0}, "tle": {"line1": "1 35451U 93036AKV 25352.69598028  .00041322  00000+0  11340-2 0  9995", "line2": "2 35451  73.9324  89.7950 0041428 334.9960  24.9237 15.36180792674971"}}, "geometry": {"type": "Point", "coordinates": [52.350606018475126, -63.364868622861984]}}, {"type": "Feature", "properties": {"norad_id": 35453, "name": "COSMOS 2251 DEB", "group": "cosmos-2251-debris", "lat": -1.2863060339150956, "lon": 6.9971290016095935, "alt_km": 804.8099564510894, "timestamp": "2025-12-19T18:58:41.982153+00:00", "meta": {"OBJECT_NAME": "COSMOS 2251 DEB", "OBJECT_ID": "1993-036AKX", "EPOCH": "2025-12-16T19:11:22.117056", "MEAN_MOTION": 14.38003213, "ECCENTRICITY": 0.00669431, "INCLINATION": 74.0096, "RA_OF_ASC_NODE": 12.8823, "ARG_OF_PERICENTER": 145.8531, "MEAN_ANOMALY": 214.6957, "EPHEMERIS_TYPE": 0, "CLASSIFICATION_TYPE": "U", "NORAD_CAT_ID": 35453, "ELEMENT_SET_NO": 999, "REV_AT_EPOCH": 86277, "BSTAR": 0.00051941791, "MEAN_MOTION_DOT": 1.586e-05, "MEAN_MOTION_DDOT": 0}, "tle": {"line1": "1 35453U 93036AKX 25350.79956154  .00001586  00000+0  51942-3 0  9995", "line2": "2 35453  74.0096  12.8823 0066943 145.8531 214.6957 14.38003213862776"}}, "geometry": {"type": "Point", "coordinates": [6.9971290016095935, -1.2863060339150956]}}, {"type": "Feature", "properties": {"norad_id": 35455, "name": "COSMOS 2251 DEB", "group": "cosmos-2251-debris", "lat": 34.92395869509155, "lon": 90.02977759932762, "alt_km": 759.466316985322, "timestamp": "2025-12-19T18:58:41.982164+00:00", "meta": {"OBJECT_NAME": "COSMOS 2251 DEB", "OBJECT_ID": "1993-036AKZ", "EPOCH": "2025-12-19T05:04:27.935616", "MEAN_MOTION": 14.49478057, "ECCENTRICITY": 0.00995683, "INCLINATION": 74.0286, "RA_OF_ASC_NODE": 282.6521, "ARG_OF_PERICENTER": 24.6393, "MEAN_ANOMALY": 335.9475, "EPHEMERIS_TYPE": 0, "CLASSIFICATION_TYPE": "U", "NORAD_CAT_ID": 35455, "ELEMENT_SET_NO": 999, "REV_AT_EPOCH": 86637, "BSTAR": 0.0010888195, "MEAN_MOTION_DOT": 4.417e-05, "MEAN_MOTION_DDOT": 0}, "tle": {"line1": "1 35455U 93036AKZ 25353.21143444  .00004417  00000+0  10888-2 0  9996", "line2": "2 35455  74.0286 282.6521 0099568  24.6393 335.9475 14.49478057866376"}}, "geometry": {"type": "Point", "coordinates": [90.02977759932762, 34.92395869509155]}}, {"type": "Feature", "properties": {"norad_id": 35456, "name": "COSMOS 2251 DEB", "group": "cosmos-2251-debris", "lat": -63.493680643070235, "lon": 68.48920218181362, "alt_km": 625.5124817575952, "timestamp": "2025-12-19T18:58:41.982174+00:00", "meta": {"OBJECT_NAME": "COSMOS 2251 DEB", "OBJECT_ID": "1993-036ALA", "EPOCH": "2025-12-16T14:29:43.540224", "MEAN_MOTION": 14.69499444, "ECCENTRICITY": 0.00664454, "INCLINATION": 73.9504, "RA_OF_ASC_NODE": 109.9489, "ARG_OF_PERICENTER": 318.8739, "MEAN_ANOMALY": 40.7432, "EPHEMERIS_TYPE": 0, "CLASSIFICATION_TYPE": "U", "NORAD_CAT_ID": 35456, "ELEMENT_SET_NO": 999, "REV_AT_EPOCH": 65932, "BSTAR": 0.0012425086, "MEAN_MOTION_DOT": 7.595e-05, "MEAN_MOTION_DDOT": 0}, "tle": {"line1": "1 35456U 93036ALA 25350.60397616  .00007595  00000+0  12425-2 0  9998", "line2": "2 35456  73.9504 109.9489 0066445 318.8739  40.7432 14.69499444659326"}}, "geometry": {"type": "Point", "coordinates": [68.48920218181362, -63.493680643070235]}}, {"type": "Feature", "properties": {"norad_id": 35459, "name": "COSMOS 2251 DEB", "group": "cosmos-2251-debris", "lat": -39.97299731401111, "lon": 8.220496912532294, "alt_km": 775.3369383238705, "timestamp": "2025-12-19T18:58:41.982184+00:00", "meta": {"OBJECT_NAME": "COSMOS 2251 DEB", "OBJECT_ID": "1993-036ALD", "EPOCH": "2025-12-17T19:11:00.873024", "MEAN_MOTION": 14.37469257, "ECCENTRICITY": 0.00161114, "INCLINATION": 73.8694, "RA_OF_ASC_NODE": 177.8806, "ARG_OF_PERICENTER": 124.2019, "MEAN_ANOMALY": 236.0663, "EPHEMERIS_TYPE": 0, "CLASSIFICATION_TYPE": "U", "NORAD_CAT_ID": 35459, "ELEMENT_SET_NO": 999, "REV_AT_EPOCH": 58434, "BSTAR": 0.00020652063, "MEAN_MOTION_DOT": 5.92e-06, "MEAN_MOTION_DDOT": 0}, "tle": {"line1": "1 35459U 93036ALD 25351.79931566  .00000592  00000+0  20652-3 0  9992", "line2": "2 35459  73.8694 177.8806 0016111 124.2019 236.0663 14.37469257584349"}}, "geometry": {"type": "Point", "coordinates": [8.220496912532294, -39.97299731401111]}}, {"type": "Feature", "properties": {"norad_id": 35462, "name": "COSMOS 2251 DEB", "group": "cosmos-2251-debris", "lat": 70.97720382808689, "lon": -47.99789878443531, "alt_km": 840.5442280415546, "timestamp": "2025-12-19T18:58:41.982194+00:00", "meta": {"OBJECT_NAME": "COSMOS 2251 DEB", "OBJECT_ID": "1993-036ALG", "EPOCH": "2025-12-15T12:08:22.276032", "MEAN_MOTION": 14.29319782, "ECCENTRICITY": 0.00867718, "INCLINATION": 74.0367, "RA_OF_ASC_NODE": 263.6601, "ARG_OF_PERICENTER": 298.2214, "MEAN_ANOMALY": 61.0193, "EPHEMERIS_TYPE": 0, "CLASSIFICATION_TYPE": "U", "NORAD_CAT_ID": 35462, "ELEMENT_SET_NO": 999, "REV_AT_EPOCH": 66420, "BSTAR": 0.0011070348, "MEAN_MOTION_DOT": 2.91e-05, "MEAN_MOTION_DDOT": 0}, "tle": {"line1": "1 35462U 93036ALG 25349.50581338  .00002910  00000+0  11070-2 0  9999", "line2": "2 35462  74.0367 263.6601 0086771 298.2214  61.0193 14.29319782664204"}}, "geometry": {"type": "Point", "coordinates": [-47.99789878443531, 70.97720382808689]}}, {"type": "Feature", "properties": {"norad_id": 35465, "name": "COSMOS 2251 DEB", "group": "cosmos-2251-debris", "lat": 20.333827567946347, "lon": -2.228839303688052, "alt_km": 789.5322490436429, "timestamp": "2025-12-19T18:58:41.982204+00:00", "meta": {"OBJECT_NAME": "COSMOS 2251 DEB", "OBJECT_ID": "1993-036ALK", "EPOCH": "2025-12-17T13:03:02.562624", "MEAN_MOTION": 14.44331537, "ECCENTRICITY": 0.00642719, "INCLINATION": 73.9967, "RA_OF_ASC_NODE": 188.0661, "ARG_OF_PERICENTER": 347.2721, "MEAN_ANOMALY": 12.6809, "EPHEMERIS_TYPE": 0, "CLASSIFICATION_TYPE": "U", "NORAD_CAT_ID": 35465, "ELEMENT_SET_NO": 999, "REV_AT_EPOCH": 87311, "BSTAR": 0.00028334394, "MEAN_MOTION_DOT": 9.72e-06, "MEAN_MOTION_DDOT": 0}, "tle": {"line1": "1 35465U 93036ALK 25351.54377966  .00000972  00000+0  28334-3 0  9997", "line2": "2 35465  73.9967 188.0661 0064271 347.2721  12.6809 14.44331537873113"}}, "geometry": {"type": "Point", "coordinates": [-2.228839303688052, 20.333827567946347]}}]}